1 40069U 14037A   16287.09218811 -.00000021  00000-0  10497-4 0  9997,2 40069  98.6927 340.4778 0005074 199.5621 160.5364 14.20635017117478
1 40069U 14037A   16287.23304972 -.00000025  00000-0  87333-5 0  9995,2 40069  98.6927 340.6164 0005081 198.9692 161.1294 14.20634985117492
1 40069U 14037A   16287.72606562 -.00000039  00000-0  20563-5 0  9996,2 40069  98.6926 341.1011 0005102 197.4696 162.6295 14.20634823117566
1 40069U 14037A   16288.07822018 -.00000044  00000-0 -24253-6 0  9999,2 40069  98.6925 341.4471 0005121 196.2481 163.8533 14.20634750117611
1 40069U 14037A   16289.06425191 -.00000048  00000-0 -21795-5 0  9991,2 40069  98.6925 342.4167 0005149 193.4217 166.6831 14.20634735117750
1 40069U 14037A   16289.41640582 -.00000045  00000-0 -85306-6 0  9999,2 40069  98.6925 342.7630 0005160 192.4909 167.6144 14.20634793117806
1 40069U 14037A   16289.69812901 -.00000044  00000-0 -14509-6 0  9991,2 40069  98.6924 343.0399 0005165 191.5295 168.5763 14.20634822117848
1 40069U 14037A   16289.97985237 -.00000035  00000-0  40320-5 0  9993,2 40069  98.6924 343.3168 0005165 190.7172 169.3907 14.20634918117889
1 40069U 14037A   16290.12071380 -.00000032  00000-0  51994-5 0  9993,2 40069  98.6924 343.4554 0005221 190.2244 169.8830 14.20634953117909
1 40069U 14037A   16290.47286786 -.00000029  00000-0  69717-5 0  9997,2 40069  98.6924 343.8017 0005224 189.1964 170.9122 14.20635017117950
1 40069U 14037A   16290.75459101 -.00000027  00000-0  78931-5 0  9997,2 40069  98.6923 344.0786 0005239 188.1191 171.9899 14.20635045117999
1 40069U 14037A   16291.10674515 -.00000015  00000-0  13158-4 0  9991,2 40069  98.6923 344.4250 0005264 187.1584 172.9531 14.20635194118048
1 40069U 14037A   16291.45889901 -.00000016  00000-0  12605-4 0  9993,2 40069  98.6923 344.7712 0005263 186.1329 173.9784 14.20635207118090
1 40069U 14037A   16291.74062221 -.00000020  00000-0  11031-4 0  9990,2 40069  98.6922 345.0482 0005291 185.1763 174.9354 14.20635175118132
1 40069U 14037A   16292.09277640 -.00000015  00000-0  13310-4 0  9998,2 40069  98.6923 345.3947 0005356 184.0069 176.1073 14.20635243118184
1 40069U 14037A   16292.44493035 -.00000018  00000-0  11870-4 0  9997,2 40069  98.6922 345.7409 0005379 182.8991 177.2156 14.20635232118233
1 40069U 14037A   16292.72665361 -.00000024  00000-0  90185-5 0  9995,2 40069  98.6921 346.0178 0005394 182.0376 178.0771 14.20635163118274
1 40069U 14037A   16293.14923881 -.00000028  00000-0  70717-5 0  9999,2 40069  98.6920 346.4335 0005391 180.8842 179.2329 14.20635135118331
1 40069U 14037A   16293.43096201 -.00000026  00000-0  81488-5 0  9993,2 40069  98.6920 346.7106 0005419 179.9701 180.1481 14.20635179118376
1 40069U 14037A   16293.71268518 -.00000030  00000-0  63668-5 0  9991,2 40069  98.6919 346.9875 0005423 179.0974 181.0209 14.20635150118419
1 40069U 14037A   16294.13527026 -.00000028  00000-0  70204-5 0  9991,2 40069  98.6918 347.4028 0005428 177.8523 182.2681 14.20635179118479
1 40069U 14037A   16294.27613184 -.00000025  00000-0  85357-5 0  9999,2 40069  98.6918 347.5413 0005436 177.4968 182.6243 14.20635231118495
1 40069U 14037A   16294.76914733 -.00000020  00000-0  10722-4 0  9995,2 40069  98.6918 348.0260 0005441 175.9121 184.2100 14.20635307118563
1 40069U 14037A   16295.12130135 -.00000008  00000-0  16624-4 0  9995,2 40069  98.6917 348.3721 0005452 174.9581 185.1663 14.20635486118616
1 40069U 14037A   16295.47345502 -.00000003  00000-0  18781-4 0  9990,2 40069  98.6917 348.7183 0005448 173.9998 186.1247 14.20635583118660
1 40069U 14037A   16295.75517809  .00000001  00000-0  20547-4 0  9992,2 40069  98.6916 348.9952 0005471 172.9303 187.1948 14.20635642118700
1 40069U 14037A   16296.10733204  .00000014  00000-0  26769-4 0  9997,2 40069  98.6916 349.3414 0005525 172.0157 188.1120 14.20635831118754
1 40069U 14037A   16296.45948579  .00000012  00000-0  25774-4 0  9991,2 40069  98.6915 349.6876 0005533 170.9166 189.2112 14.20635849118802
1 40069U 14037A   16296.74120894  .00000009  00000-0  24256-4 0  9995,2 40069  98.6915 349.9645 0005544 170.0447 190.0834 14.20635826118844
1 40069U 14037A   16297.09336308  .00000009  00000-0  24523-4 0  9990,2 40069  98.6914 350.3108 0005572 169.0455 191.0848 14.20635858118897
1 40069U 14037A   16297.44551702  .00000003  00000-0  21494-4 0  9994,2 40069  98.6914 350.6570 0005580 168.0213 192.1096 14.20635822118947
1 40069U 14037A   16297.72724027 -.00000008  00000-0  16548-4 0  9997,2 40069  98.6913 350.9340 0005607 167.2846 192.8465 14.20635707118980
1 40069U 14037A   16298.14982547 -.00000021  00000-0  10637-4 0  9995,2 40069  98.6911 351.3494 0005633 165.9453 194.1882 14.20635590119047
1 40069U 14037A   16298.43154864 -.00000022  00000-0  10074-4 0  9996,2 40069  98.6911 351.6265 0005650 165.0929 195.0415 14.20635596119086
1 40069U 14037A   16298.78370264 -.00000031  00000-0  60371-5 0  9994,2 40069  98.6910 351.9726 0005665 164.1256 196.0089 14.20635496119132
1 40069U 14037A   16299.13585708 -.00000038  00000-0  25139-5 0  9995,2 40069  98.6909 352.3188 0005694 163.1579 196.9793 14.20635418119186
1 40069U 14037A   16299.41758017 -.00000034  00000-0  44972-5 0  9993,2 40069  98.6909 352.5959 0005710 162.3201 197.8180 14.20635486119226
1 40069U 14037A   16299.76973402 -.00000038  00000-0  27020-5 0  9997,2 40069  98.6909 352.9420 0005739 161.2180 198.9202 14.20635445119275
1 40069U 14037A   16300.12188821 -.00000026  00000-0  82869-5 0  9992,2 40069  98.6908 353.2881 0005741 160.2031 199.9380 14.20635588119328
1 40069U 14037A   16300.40361115 -.00000024  00000-0  92691-5 0  9994,2 40069  98.6908 353.5652 0005764 159.3887 200.7527 14.20635639119365
1 40069U 14037A   16300.75576421 -.00000030  00000-0  61589-5 0  9999,2 40069  98.6907 353.9114 0005775 158.2583 201.8788 14.20635568119412
1 40069U 14037A   16301.10791894  .00000080  00000-0  57379-4 0  9997,2 40069  98.6904 354.2590 0006062 157.9542 202.1933 14.20636256119468
1 40069U 14037A   16301.46007222 -.00000204  00000-0 -74570-4 0  9993,2 40069  98.6903 354.6046 0006044 156.8675 203.2764 14.20635559119517
1 40069U 14037A   16301.74179572 -.00000556  00000-0 -23788-3 0  9996,2 40069  98.6905 354.8820 0006090 156.4149 203.7279 14.20634111119557
1 40069U 14037A   16302.09395043 -.00000046  00000-0 -94983-6 0  9990,2 40069  98.6907 355.2289 0006133 155.7478 204.4019 14.20635372119604
1 40069U 14037A   16302.86868880 -.00000040  00000-0  16143-5 0  9993,2 40069  98.6906 355.9888 0005879 152.5930 207.5528 14.20635480119710
1 40069U 14037A   16303.22084338 -.00000050  00000-0 -29983-5 0  9990,2 40069  98.6904 356.3350 0005926 151.8524 208.2973 14.20635396119764
1 40069U 14037A   16303.50256620 -.00000052  00000-0 -37138-5 0  9999,2 40069  98.6904 356.6119 0005935 150.8486 209.3001 14.20635389119807
1 40069U 14037A   16303.85472067 -.00000058  00000-0 -68839-5 0  9990,2 40069  98.6904 356.9582 0005944 149.8742 210.2767 14.20635286119858
1 40069U 14037A   16304.69989001 -.00000043 +00000-0 +10130-7 0  9990,2 40069 098.6903 357.7891 0006011 147.4974 212.6575 14.20635511119973
1 40069U 14037A   16305.89721295 -.00000017 +00000-0 +12458-4 0  9995,2 40069 098.6902 358.9662 0006086 144.2579 215.9001 14.20635828120141
1 40069U 14037A   16306.10850540 -.00000014  00000-0  13686-4 0  9997,2 40069  98.6902 359.1740 0006073 143.7544 216.4052 14.20635879120174
1 40069U 14037A   16306.39022830 -.00000012  00000-0  14770-4 0  9994,2 40069  98.6902 359.4510 0006073 143.0847 217.0750 14.20635938120214
1 40069U 14037A   16306.74238218 -.00000010  00000-0  15661-4 0  9990,2 40069  98.6901 359.7969 0006099 141.9516 218.2093 14.20635981120268
1 40069U 14037A   16307.09453625 -.00000007  00000-0  16933-4 0  9999,2 40069  98.6901   0.1434 0006098 141.2033 218.9593 14.20636014120314
1 40069U 14037A   16307.44668998 -.00000013  00000-0  13951-4 0  9993,2 40069  98.6900   0.4895 0006116 140.2438 219.9185 14.20635963120361
1 40069U 14037A   16307.72841320 -.00000022  00000-0  98092-5 0  9996,2 40069  98.6899   0.7663 0006123 139.5610 220.6015 14.20635867120404
1 40069U 14037A   16308.08056739 -.00000023  00000-0  95053-5 0  9993,2 40069  98.6898   1.1125 0006147 138.7370 221.4280 14.20635870120453
1 40069U 14037A   16308.43272123 -.00000029  00000-0  65218-5 0  9995,2 40069  98.6897   1.4587 0006152 137.6768 222.4885 14.20635825120500
1 40069U 14037A   16308.71444434 -.00000035  00000-0  40334-5 0  9991,2 40069  98.6896   1.7356 0006162 136.9233 223.2422 14.20635772120547
1 40069U 14037A   16309.06659838 -.00000029  00000-0  66428-5 0  9991,2 40069  98.6895   2.0817 0006207 136.1492 224.0188 14.20635847120597
1 40069U 14037A   16309.41875200 -.00000026  00000-0  83160-5 0  9992,2 40069  98.6895   2.4279 0006216 135.2458 224.9226 14.20635926120641
1 40069U 14037A   16309.77090566 -.00000019  00000-0  11233-4 0  9998,2 40069  98.6894   2.7739 0006230 134.1560 226.0128 14.20636016120692
1 40069U 14037A   16310.12305958 -.00000013  00000-0  14149-4 0  9996,2 40069  98.6893   3.1199 0006231 133.2634 226.9072 14.20636108120744
1 40069U 14037A   16310.40478234 -.00000007  00000-0  16723-4 0  9998,2 40069  98.6893   3.3969 0006229 132.4757 227.6949 14.20636208120781
1 40069U 14037A   16310.75693603 -.00000003  00000-0  18622-4 0  9991,2 40069  98.6892   3.7428 0006249 131.4326 228.7386 14.20636278120837
1 40069U 14037A   16311.10908997  .00000006  00000-0  23167-4 0  9998,2 40069  98.6892   4.0890 0006250 130.8758 229.2983 14.20636424120885
1 40069U 14037A   16311.39081257  .00000006  00000-0  22984-4 0  9996,2 40069  98.6892   4.3659 0006258 130.0485 230.1242 14.20636446120926
1 40069U 14037A   16311.74296633  .00000003  00000-0  21601-4 0  9993,2 40069  98.6890   4.7117 0006283 129.1414 231.0319 14.20636446120976
1 40069U 14037A   16312.09512027  .00000001  00000-0  20614-4 0  9991,2 40069  98.6889   5.0580 0006296 128.5358 231.6391 14.20636441121024
1 40069U 14037A   16312.44727400 -.00000006  00000-0  17474-4 0  9999,2 40069  98.6888   5.4041 0006328 127.6303 232.5449 14.20636393121070
